{"type": "FeatureCollection", "features": [ {"type": "Feature", "properties": {"norad_id": 45358, "name": "COSMOS 2545 (760)", "group": "glo-ops", "lat": -63.39558534151382, "lon": -148.87830921021268, "alt_km": 19107.907876354973, "timestamp": "2025-12-22T15:43:49.265501+00:00", "meta": {"OBJECT_NAME": "COSMOS 2545 (760)", "OBJECT_ID": "2020-018A", "EPOCH": "2025-12-20T21:44:12.708096", "MEAN_MOTION": 2.13102664, "ECCENTRICITY": 0.00114269, "INCLINATION": 64.4648, "RA_OF_ASC_NODE": 318.6832, "ARG_OF_PERICENTER": 250.0027, "MEAN_ANOMALY": 109.8672, "EPHEMERIS_TYPE": 0, "CLASSIFICATION_TYPE": "U", "NORAD_CAT_ID": 45358, "ELEMENT_SET_NO": 999, "REV_AT_EPOCH": 4486, "BSTAR": 0, "MEAN_MOTION_DOT": -5e-07, "MEAN_MOTION_DDOT": 0}, "tle": {"line1": "1 45358U 20018A   25354.90570264 -.00000050  00000+0  00000+0 0  9992", "line2": "2 45358  64.4648 318.6832 0011426 250.0027 109.8672  2.13102664 44860"}}, "geometry": {"type": "Point", "coordinates": [-148.87830921021268, -63.39558534151382]}}, {"type": "Feature", "properties": {"norad_id": 46805, "name": "COSMOS 2547 (705K)", "group": "glo-ops", "lat": 52.951597271722925, "lon": -20.67166892968487, "alt_km": 19129.331186516298, "timestamp": "2025-12-22T15:43:49.265517+00:00", "meta": {"OBJECT_NAME": "COSMOS 2547 (705K)", "OBJECT_ID": "2020-075A", "EPOCH": "2025-12-22T00:46:38.571168", "MEAN_MOTION": 2.13100252, "ECCENTRICITY": 0.000611, "INCLINATION": 64.5967, "RA_OF_ASC_NODE": 198.3861, "ARG_OF_PERICENTER": 227.6651, "MEAN_ANOMALY": 132.3515, "EPHEMERIS_TYPE": 0, "CLASSIFICATION_TYPE": "U", "NORAD_CAT_ID": 46805, "ELEMENT_SET_NO": 999, "REV_AT_EPOCH": 4013, "BSTAR": 0, "MEAN_MOTION_DOT": 9.6e-07, "MEAN_MOTION_DDOT": 0}, "tle": {"line1": "1 46805U 20075A   25356.03239087  .00000096  00000+0  00000+0 0  9993", "line2": "2 46805  64.5967 198.3861 0006110 227.6651 132.3515  2.13100252 40139"}}, "geometry": {"type": "Point", "coordinates": [-20.67166892968487, 52.951597271722925]}}, {"type": "Feature", "properties": {"norad_id": 52984, "name": "COSMOS 2557 (706K)", "group": "glo-ops", "lat": -7.913974956830679, "lon": -43.132351903912685, "alt_km": 19121.138143178, "timestamp": "2025-12-22T15:43:49.265533+00:00", "meta": {"OBJECT_NAME": "COSMOS 2557 (706K)", "OBJECT_ID": "2022-075A", "EPOCH": "2025-12-21T17:28:49.224000", "MEAN_MOTION": 2.13102032, "ECCENTRICITY": 0.00135441, "INCLINATION": 64.4048, "RA_OF_ASC_NODE": 320.7357, "ARG_OF_PERICENTER": 278.4426, "MEAN_ANOMALY": 81.3985, "EPHEMERIS_TYPE": 0, "CLASSIFICATION_TYPE": "U", "NORAD_CAT_ID": 52984, "ELEMENT_SET_NO": 999, "REV_AT_EPOCH": 2693, "BSTAR": 0, "MEAN_MOTION_DOT": -4.6e-07, "MEAN_MOTION_DDOT": 0}, "tle": {"line1": "1 52984U 22075A   25355.72834750 -.00000046  00000+0  00000+0 0  9999", "line2": "2 52984  64.4048 320.7357 0013544 278.4426  81.3985  2.13102032 26931"}}, "geometry": {"type": "Point", "coordinates": [-43.132351903912685, -7.913974956830679]}}, {"type": "Feature", "properties": {"norad_id": 54031, "name": "COSMOS 2559 (707K)", "group": "glo-ops", "lat": 43.82325299285373, "lon": 113.36722270630476, "alt_km": 19111.030910134254, "timestamp": "2025-12-22T15:43:49.265547+00:00", "meta": {"OBJECT_NAME": "COSMOS 2559 (707K)", "OBJECT_ID": "2022-130A", "EPOCH": "2025-12-22T00:24:12.527424", "MEAN_MOTION": 2.13101328, "ECCENTRICITY": 0.00115649, "INCLINATION": 64.377, "RA_OF_ASC_NODE": 320.8148, "ARG_OF_PERICENTER": 191.8741, "MEAN_ANOMALY": 168.0944, "EPHEMERIS_TYPE": 0, "CLASSIFICATION_TYPE": "U", "NORAD_CAT_ID": 54031, "ELEMENT_SET_NO": 999, "REV_AT_EPOCH": 2491, "BSTAR": 0, "MEAN_MOTION_DOT": -4.4e-07, "MEAN_MOTION_DDOT": 0}, "tle": {"line1": "1 54031U 22130A   25356.01681166 -.00000044  00000+0  00000+0 0  9998", "line2": "2 54031  64.3770 320.8148 0011564 191.8741 168.0944  2.13101328 24915"}}, "geometry": {"type": "Point", "coordinates": [113.36722270630476, 43.82325299285373]}}, {"type": "Feature", "properties": {"norad_id": 54377, "name": "COSMOS 2564 (761)", "group": "glo-ops", "lat": -57.91260433454147, "lon": 67.4705403495253, "alt_km": 19120.935183266512, "timestamp": "2025-12-22T15:43:49.265562+00:00", "meta": {"OBJECT_NAME": "COSMOS 2564 (761)", "OBJECT_ID": "2022-161A", "EPOCH": "2025-12-21T20:39:47.776032", "MEAN_MOTION": 2.13102051, "ECCENTRICITY": 0.00085446, "INCLINATION": 64.7387, "RA_OF_ASC_NODE": 198.5958, "ARG_OF_PERICENTER": 203.7304, "MEAN_ANOMALY": 156.2998, "EPHEMERIS_TYPE": 0, "CLASSIFICATION_TYPE": "U", "NORAD_CAT_ID": 54377, "ELEMENT_SET_NO": 999, "REV_AT_EPOCH": 2385, "BSTAR": 0, "MEAN_MOTION_DOT": 9.6e-07, "MEAN_MOTION_DDOT": 0}, "tle": {"line1": "1 54377U 22161A   25355.86096963  .00000096  00000+0  00000+0 0  9998", "line2": "2 54377  64.7387 198.5958 0008544 203.7304 156.2998  2.13102051 23851"}}, "geometry": {"type": "Point", "coordinates": [67.4705403495253, -57.91260433454147]}}, {"type": "Feature", "properties": {"norad_id": 57517, "name": "COSMOS 2569 (703K)", "group": "glo-ops", "lat": -51.16351221537141, "lon": -66.42211985954073, "alt_km": 19117.142515427455, "timestamp": "2025-12-22T15:43:49.265576+00:00", "meta": {"OBJECT_NAME": "COSMOS 2569 (703K)", "OBJECT_ID": "2023-114A", "EPOCH": "2025-12-20T11:11:48.591168", "MEAN_MOTION": 2.13103983, "ECCENTRICITY": 0.00107986, "INCLINATION": 65.1981, "RA_OF_ASC_NODE": 78.6524, "ARG_OF_PERICENTER": 287.0398, "MEAN_ANOMALY": 72.8764, "EPHEMERIS_TYPE": 0, "CLASSIFICATION_TYPE": "U", "NORAD_CAT_ID": 57517, "ELEMENT_SET_NO": 999, "REV_AT_EPOCH": 1845, "BSTAR": 0, "MEAN_MOTION_DOT": -1.8e-07, "MEAN_MOTION_DDOT": 0}, "tle": {"line1": "1 57517U 23114A   25354.46653462 -.00000018  00000+0  00000+0 0  9999", "line2": "2 57517  65.1981  78.6524 0010798 287.0398  72.8764  2.13103983 18453"}}, "geometry": {"type": "Point", "coordinates": [-66.42211985954073, -51.16351221537141]}}, {"type": "Feature", "properties": {"norad_id": 63130, "name": "COSMOS 2584 (704K)", "group": "glo-ops", "lat": -30.229115033780413, "lon": 63.05862225151646, "alt_km": 19139.69284925089, "timestamp": "2025-12-22T15:43:49.265592+00:00", "meta": {"OBJECT_NAME": "COSMOS 2584 (704K)", "OBJECT_ID": "2025-042A", "EPOCH": "2025-12-21T07:00:00.966240", "MEAN_MOTION": 2.13103074, "ECCENTRICITY": 0.00077364, "INCLINATION": 64.9804, "RA_OF_ASC_NODE": 78.8547, "ARG_OF_PERICENTER": 219.241, "MEAN_ANOMALY": 140.7412, "EPHEMERIS_TYPE": 0, "CLASSIFICATION_TYPE": "U", "NORAD_CAT_ID": 63130, "ELEMENT_SET_NO": 999, "REV_AT_EPOCH": 625, "BSTAR": 0, "MEAN_MOTION_DOT": -1.1e-07, "MEAN_MOTION_DDOT": 0}, "tle": {"line1": "1 63130U 25042A   25355.29167785 -.00000011  00000+0  00000+0 0  9992", "line2": "2 63130  64.9804  78.8547 0007736 219.2410 140.7412  2.13103074  6250"}}, "geometry": {"type": "Point", "coordinates": [63.05862225151646, -30.229115033780413]}}, {"type": "Feature", "properties": {"norad_id": 65590, "name": "COSMOS 2596 (708K)", "group": "glo-ops", "lat": 64.23058823113057, "lon": 38.926623391501, "alt_km": 19149.657928474513, "timestamp": "2025-12-22T15:43:49.265608+00:00", "meta": {"OBJECT_NAME": "COSMOS 2596 (708K)", "OBJECT_ID": "2025-206B", "EPOCH": "2025-12-22T03:59:43.719936", "MEAN_MOTION": 2.1310041, "ECCENTRICITY": 0.00140887, "INCLINATION": 64.7392, "RA_OF_ASC_NODE": 321.1476, "ARG_OF_PERICENTER": 307.2643, "MEAN_ANOMALY": 122.2256, "EPHEMERIS_TYPE": 0, "CLASSIFICATION_TYPE": "U", "NORAD_CAT_ID": 65590, "ELEMENT_SET_NO": 999, "REV_AT_EPOCH": 214, "BSTAR": 0, "MEAN_MOTION_DOT": -4.3e-07, "MEAN_MOTION_DDOT": 0}, "tle": {"line1": "1 65590U 25206B   25356.16647824 -.00000043  00000+0  00000+0 0  9995", "line2": "2 65590  64.7392 321.1476 0014088 307.2643 122.2256  2.13100410  2147"}}, "geometry": {"type": "Point", "coordinates": [38.926623391501, 64.23058823113057]}}]}